$$SOE
2461302.500000000, A.D. 2026-Sep-19 00:00:00.0000, -2.830147517650509E+08, -3.631127572304113E+08, 4.188991964181438E+06,
2461309.500000000, A.D. 2026-Sep-26 00:00:00.0000, -2.746142806822491E+08, -3.687133004812030E+08, 2.275089492838845E+06,
2461316.500000000, A.D. 2026-Oct-03 00:00:00.0000, -2.660766160213227E+08, -3.741296654132851E+08, 3.600515035690963E+05,
2461323.500000000, A.D. 2026-Oct-10 00:00:00.0000, -2.574054577269216E+08, -3.793583534989208E+08, -1.555166013253421E+06,
2461330.500000000, A.D. 2026-Oct-17 00:00:00.0000, -2.486046055904466E+08, -3.843959329683276E+08, -3.469598839248180E+06,
2461337.500000000, A.D. 2026-Oct-24 00:00:00.0000, -2.396779588291321E+08, -3.892390419577047E+08, -5.382274946238339E+06,
2461344.500000000, A.D. 2026-Oct-31 00:00:00.0000, -2.306295154762806E+08, -3.938843918612400E+08, -7.292214956615597E+06,
2461351.500000000, A.D. 2026-Nov-07 00:00:00.0000, -2.214633712398841E+08, -3.983287708099102E+08, -9.198432670990437E+06,
2461358.500000000, A.D. 2026-Nov-14 00:00:00.0000, -2.121837176249996E+08, -4.025690463860939E+08, -1.109993560903957E+07,
2461365.500000000, A.D. 2026-Nov-21 00:00:00.0000, -2.027948411275760E+08, -4.066021668877926E+08, -1.299572534158963E+07,
2461372.500000000, A.D. 2026-Nov-28 00:00:00.0000, -1.933011244931963E+08, -4.104251641460684E+08, -1.488479776814827E+07,
2461379.500000000, A.D. 2026-Dec-05 00:00:00.0000, -1.837070464171275E+08, -4.140351585487981E+08, -1.676614372541261E+07,
2461386.500000000, A.D. 2026-Dec-12 00:00:00.0000, -1.740171795178447E+08, -4.174293631565116E+08, -1.863874968744078E+07,
2461393.500000000, A.D. 2026-Dec-19 00:00:00.0000, -1.642361884684694E+08, -4.206050868992067E+08, -2.050159838357511E+07,
2461400.500000000, A.D. 2026-Dec-26 00:00:00.0000, -1.543688284254050E+08, -4.235597377166467E+08, -2.235366939168039E+07,
2461407.500000000, A.D. 2027-Jan-02 00:00:00.0000, -1.444199434752057E+08, -4.262908258272456E+08, -2.419393974730143E+07,
2461414.500000000, A.D. 2027-Jan-09 00:00:00.0000, -1.343944649798252E+08, -4.287959670997355E+08, -2.602138457755700E+07,
2461421.500000000, A.D. 2027-Jan-16 00:00:00.0000, -1.242974097827191E+08, -4.310728865135916E+08, -2.783497776207042E+07,
2461428.500000000, A.D. 2027-Jan-23 00:00:00.0000, -1.141338782286110E+08, -4.331194217427725E+08, -2.963369262816599E+07,
2461435.500000000, A.D. 2027-Jan-30 00:00:00.0000, -1.039090518087440E+08, -4.349335269051436E+08, -3.141650270120484E+07,
2461442.500000000, A.D. 2027-Feb-06 00:00:00.0000, -9.362819000679719E+07, -4.365132761316859E+08, -3.318238252095827E+07,
2461449.500000000, A.D. 2027-Feb-13 00:00:00.0000, -8.329662680588871E+07, -4.378568657293495E+08, -3.493030838181773E+07,
2461456.500000000, A.D. 2027-Feb-20 00:00:00.0000, -7.291976922040951E+07, -4.389626157211119E+08, -3.665925884431806E+07,
2461463.500000000, A.D. 2027-Feb-27 00:00:00.0000, -6.250309645602126E+07, -4.398289739695072E+08, -3.836821540832555E+07,
2461470.500000000, A.D. 2027-Mar-06 00:00:00.0000, -5.205215667956772E+07, -4.404545209549193E+08, -4.005616346733043E+07,
2461477.500000000, A.D. 2027-Mar-13 00:00:00.0000, -4.157256300025451E+07, -4.408379731524433E+08, -4.172209322909272E+07,
2461484.500000000, A.D. 2027-Mar-20 00:00:00.0000, -3.106998979293912E+07, -4.409781858331586E+08, -4.336500056637371E+07,
2461491.500000000, A.D. 2027-Mar-27 00:00:00.0000, -2.055016916243154E+07, -4.408741558284584E+08, -4.498388785988656E+07,
2461498.500000000, A.D. 2027-Apr-03 00:00:00.0000, -1.001888734589342E+07, -4.405250242945122E+08, -4.657776485456496E+07,
2461505.500000000, A.D. 2027-Apr-10 00:00:00.0000, 5.180190087180298E+05, -4.399300794442281E+08, -4.814564953161415E+07,
2461512.500000000, A.D. 2027-Apr-17 00:00:00.0000, 1.105466671080394E+07, -4.390887592536307E+08, -4.968656899863786E+07,
2461519.500000000, A.D. 2027-Apr-24 00:00:00.0000, 2.158513012004801E+07, -4.380006541992272E+08, -5.119956040952662E+07,
2461526.500000000, A.D. 2027-May-01 00:00:00.0000, 3.210344576064650E+07, -4.366655099931782E+08, -5.268367193856522E+07,
2461533.500000000, A.D. 2027-May-08 00:00:00.0000, 4.260361775973903E+07, -4.350832295614390E+08, -5.413796377470896E+07,
2461540.500000000, A.D. 2027-May-15 00:00:00.0000, 5.307962260803055E+07, -4.332538733033519E+08, -5.556150891934547E+07,
2461547.500000000, A.D. 2027-May-22 00:00:00.0000, 6.352541167384645E+07, -4.311776602144984E+08, -5.695339385410252E+07,
2461554.500000000, A.D. 2027-May-29 00:00:00.0000, 7.393491482246338E+07, -4.288549713316195E+08, -5.831271950470299E+07,
2461561.500000000, A.D. 2027-Jun-05 00:00:00.0000, 8.430204602109946E+07, -4.262863523604428E+08, -5.963860232449117E+07,
2461568.500000000, A.D. 2027-Jun-12 00:00:00.0000, 9.462070891631897E+07, -4.234725150476598E+08, -6.093017527653742E+07,
2461575.500000000, A.D. 2027-Jun-19 00:00:00.0000, 1.048848020462451E+08, -4.204143382246952E+08, -6.218658875848874E+07,
2461582.500000000, A.D. 2027-Jun-26 00:00:00.0000, 1.150882239597356E+08, -4.171128687771395E+08, -6.340701151507697E+07,
2461589.500000000, A.D. 2027-Jul-03 00:00:00.0000, 1.252248783666681E+08, -4.135693225239848E+08, -6.459063154742023E+07,
2461596.500000000, A.D. 2027-Jul-10 00:00:00.0000, 1.352886793477636E+08, -4.097850849900557E+08, -6.573665701922596E+07,
2461603.500000000, A.D. 2027-Jul-17 00:00:00.0000, 1.452735566520776E+08, -4.057617121026251E+08, -6.684431716371971E+07,
2461610.500000000, A.D. 2027-Jul-24 00:00:00.0000, 1.551734612307775E+08, -4.015009308681551E+08, -6.791286320824280E+07,
2461617.500000000, A.D. 2027-Jul-31 00:00:00.0000, 1.649823714106952E+08, -3.970046397884846E+08, -6.894156933275376E+07,
2461624.500000000, A.D. 2027-Aug-07 00:00:00.0000, 1.746942994980766E+08, -3.922749078608921E+08, -6.992973354767646E+07,
2461631.500000000, A.D. 2027-Aug-14 00:00:00.0000, 1.843032965012495E+08, -3.873139724114909E+08, -7.087667829872157E+07,
2461638.500000000, A.D. 2027-Aug-21 00:00:00.0000, 1.938034555797478E+08, -3.821242391212964E+08, -7.178175112820628E+07,
2461645.500000000, A.D. 2027-Aug-28 00:00:00.0000, 2.031889176409275E+08, -3.767082830379235E+08, -7.264432560741889E+07,
2461652.500000000, A.D. 2027-Sep-04 00:00:00.0000, 2.124538778926472E+08, -3.710688480689442E+08, -7.346380222575599E+07,
2461659.500000000, A.D. 2027-Sep-11 00:00:00.0000, 2.215925919453809E+08, -3.652088456170700E+08, -7.423960916120391E+07,
2461666.500000000, A.D. 2027-Sep-18 00:00:00.0000, 2.305993815851302E+08, -3.591313530060380E+08, -7.497120299589273E+07,
2461673.500000000, A.D. 2027-Sep-25 00:00:00.0000, 2.394686404340412E+08, -3.528396117737981E+08, -7.565806940241493E+07,
2461680.500000000, A.D. 2027-Oct-02 00:00:00.0000, 2.481948395616300E+08, -3.463370258048675E+08, -7.629972380389287E+07,
2461687.500000000, A.D. 2027-Oct-09 00:00:00.0000, 2.567725330566848E+08, -3.396271593060892E+08, -7.689571200852522E+07,
2461694.500000000, A.D. 2027-Oct-16 00:00:00.0000, 2.651963636107736E+08, -3.327137346805074E+08, -7.744561082715595E+07,
2461701.500000000, A.D. 2027-Oct-23 00:00:00.0000, 2.734610683619747E+08, -3.256006303056139E+08, -7.794902869663920E+07,
2461708.500000000, A.D. 2027-Oct-30 00:00:00.0000, 2.815614853633164E+08, -3.182918776083179E+08, -7.840560629242496E+07,
2461715.500000000, A.D. 2027-Nov-06 00:00:00.0000, 2.894925595018768E+08, -3.107916563135327E+08, -7.881501693067321E+07,
2461722.500000000, A.D. 2027-Nov-13 00:00:00.0000, 2.972493458706840E+08, -3.031042899478181E+08, -7.917696674634518E+07,
2461729.500000000, A.D. 2027-Nov-20 00:00:00.0000, 3.048270134821218E+08, -2.952342437878486E+08, -7.949119509044921E+07,
2461736.500000000, A.D. 2027-Nov-27 00:00:00.0000, 3.122208509283610E+08, -2.871861222939416E+08, -7.975747505104284E+07,
2461743.500000000, A.D. 2027-Dec-04 00:00:00.0000, 3.194262719533207E+08, -2.789646651208840E+08, -7.997561383627482E+07,
2461750.500000000, A.D. 2027-Dec-11 00:00:00.0000, 3.264388203733133E+08, -2.705747426758431E+08, -8.014545304605214E+07,
2461757.500000000, A.D. 2027-Dec-18 00:00:00.0000, 3.332541746102121E+08, -2.620213515677482E+08, -8.026686888368620E+07,
2461764.500000000, A.D. 2027-Dec-25 00:00:00.0000, 3.398681519801674E+08, -2.533096099564524E+08, -8.033977232076992E+07,
2461771.500000000, A.D. 2028-Jan-01 00:00:00.0000, 3.462767127719970E+08, -2.444447527954347E+08, -8.036410921786708E+07,
$$EOE